     3.02           N: GNSS NAV DATA    G: GPS              RINEX VERSION / TYPE
Spider v7.5.1.8670  SMO                 20211005 010551 UTC PGM / RUN BY / DATE
GPSA   1.0245D-08  7.4506D-09 -5.9605D-08 -5.9605D-08       IONOSPHERIC CORR
GPSB   8.8064D+04  0.0000D+00 -1.9661D+05 -6.5536D+04       IONOSPHERIC CORR
GPUT -1.8626451492D-09-3.552713679D-15 405504 2178          TIME SYSTEM CORR
    18    18  1929     7                                    LEAP SECONDS
                                                            END OF HEADER
G29 2021 10 05 01 59 44-4.215645603836D-04-5.570655048359D-12 0.000000000000D+00
     1.800000000000D+01-4.465625000000D+01 3.767656853171D-09-4.756952461135D-01
    -2.363696694374D-06 1.917590387166D-03 1.286901533604D-05 5.153576641083D+03
     1.799840000000D+05-5.960464477539D-08-5.161157487154D-01-5.960464477539D-08
     9.832209753973D-01 1.429375000000D+02 2.361644214064D+00-7.651032696288D-09
    -4.685909438251D-10 1.000000000000D+00 2.178000000000D+03 0.000000000000D+00
     2.000000000000D+00 0.000000000000D+00-1.024454832077D-08 1.800000000000D+01
     1.727100000000D+05                   
